[
  {
    "COMMENT": "GENERATED VIA SPACETRACK.ORG API",
    "ORIGINATOR": "18 SPCS",
    "NORAD_CAT_ID": "43682",
    "OBJECT_NAME": "H-2A R/B",
    "OBJECT_TYPE": "ROCKET BODY",
    "CLASSIFICATION_TYPE": "U",
    "INTLDES": "18084L",
    "EPOCH": "2019-01-22 22:15:49",
    "EPOCH_MICROSECONDS": "49856",
    "MEAN_MOTION": "15.02511526",
    "ECCENTRICITY": "0.0058045",
    "INCLINATION": "98.8616",
    "RA_OF_ASC_NODE": "150.1736",
    "ARG_OF_PERICENTER": "8.9715",
    "MEAN_ANOMALY": "351.2507",
    "EPHEMERIS_TYPE": "0",
    "ELEMENT_SET_NO": "999",
    "REV_AT_EPOCH": "1282",
    "BSTAR": "-0.0000035079",
    "MEAN_MOTION_DOT": "-0.00000133",
    "MEAN_MOTION_DDOT": "0",
    "FILE": "2398549",
    "TLE_LINE0": "0 H-2A R/B",
    "TLE_LINE1": "1 43682U 18084L   19022.92765104 -.00000133 +00000-0 -35079-5 0  9990",
    "TLE_LINE2": "2 43682 098.8616 150.1736 0058045 008.9715 351.2507 15.02511526012822",
    "OBJECT_ID": "2018-084L",
    "OBJECT_NUMBER": "43682",
    "SEMIMAJOR_AXIS": "6937.292",
    "PERIOD": "95.840",
    "APOGEE": "599.424",
    "PERIGEE": "518.889",
    "DECAYED": "0"
  },
  {
    "COMMENT": "GENERATED VIA SPACETRACK.ORG API",
    "ORIGINATOR": "18 SPCS",
    "NORAD_CAT_ID": "43682",
    "OBJECT_NAME": "H-2A R/B",
    "OBJECT_TYPE": "ROCKET BODY",
    "CLASSIFICATION_TYPE": "U",
    "INTLDES": "18084L",
    "EPOCH": "2019-01-23 09:27:05",
    "EPOCH_MICROSECONDS": "753376",
    "MEAN_MOTION": "15.02511565",
    "ECCENTRICITY": "0.0058076",
    "INCLINATION": "98.8614",
    "RA_OF_ASC_NODE": "150.7064",
    "ARG_OF_PERICENTER": "7.4265",
    "MEAN_ANOMALY": "352.7801",
    "EPHEMERIS_TYPE": "0",
    "ELEMENT_SET_NO": "999",
    "REV_AT_EPOCH": "1289",
    "BSTAR": "-0.000002718",
    "MEAN_MOTION_DOT": "-0.00000122",
    "MEAN_MOTION_DDOT": "0",
    "FILE": "2399205",
    "TLE_LINE0": "0 H-2A R/B",
    "TLE_LINE1": "1 43682U 18084L   19023.39381659 -.00000122 +00000-0 -27180-5 0  9993",
    "TLE_LINE2": "2 43682 098.8614 150.7064 0058076 007.4265 352.7801 15.02511565012891",
    "OBJECT_ID": "2018-084L",
    "OBJECT_NUMBER": "43682",
    "SEMIMAJOR_AXIS": "6937.292",
    "PERIOD": "95.840",
    "APOGEE": "599.446",
    "PERIGEE": "518.868",
    "DECAYED": "0"
  },
  {
    "COMMENT": "GENERATED VIA SPACETRACK.ORG API",
    "ORIGINATOR": "18 SPCS",
    "NORAD_CAT_ID": "43682",
    "OBJECT_NAME": "H-2A R/B",
    "OBJECT_TYPE": "ROCKET BODY",
    "CLASSIFICATION_TYPE": "U",
    "INTLDES": "18084L",
    "EPOCH": "2019-01-23 22:14:16",
    "EPOCH_MICROSECONDS": "302912",
    "MEAN_MOTION": "15.02510946",
    "ECCENTRICITY": "0.0058031",
    "INCLINATION": "98.8614",
    "RA_OF_ASC_NODE": "151.315",
    "ARG_OF_PERICENTER": "5.6454",
    "MEAN_ANOMALY": "354.5406",
    "EPHEMERIS_TYPE": "0",
    "ELEMENT_SET_NO": "999",
    "REV_AT_EPOCH": "1297",
    "BSTAR": "-0.0000088224",
    "MEAN_MOTION_DOT": "-0.00000206",
    "MEAN_MOTION_DDOT": "0",
    "FILE": "2399096",
    "TLE_LINE0": "0 H-2A R/B",
    "TLE_LINE1": "1 43682U 18084L   19023.92657758 -.00000206  00000-0 -88224-5 0  9997",
    "TLE_LINE2": "2 43682  98.8614 151.3150 0058031   5.6454 354.5406 15.02510946 12977",
    "OBJECT_ID": "2018-084L",
    "OBJECT_NUMBER": "43682",
    "SEMIMAJOR_AXIS": "6937.294",
    "PERIOD": "95.840",
    "APOGEE": "599.416",
    "PERIGEE": "518.901",
    "DECAYED": "0"
  },
  {
    "COMMENT": "GENERATED VIA SPACETRACK.ORG API",
    "ORIGINATOR": "18 SPCS",
    "NORAD_CAT_ID": "43682",
    "OBJECT_NAME": "H-2A R/B",
    "OBJECT_TYPE": "ROCKET BODY",
    "CLASSIFICATION_TYPE": "U",
    "INTLDES": "18084L",
    "EPOCH": "2019-01-24 11:01:26",
    "EPOCH_MICROSECONDS": "827392",
    "MEAN_MOTION": "15.02510731",
    "ECCENTRICITY": "0.0058059",
    "INCLINATION": "98.8614",
    "RA_OF_ASC_NODE": "151.9242",
    "ARG_OF_PERICENTER": "3.9188",
    "MEAN_ANOMALY": "356.2475",
    "EPHEMERIS_TYPE": "0",
    "ELEMENT_SET_NO": "999",
    "REV_AT_EPOCH": "1305",
    "BSTAR": "-0.0000095597",
    "MEAN_MOTION_DOT": "-0.00000216",
    "MEAN_MOTION_DDOT": "0",
    "FILE": "2399665",
    "TLE_LINE0": "0 H-2A R/B",
    "TLE_LINE1": "1 43682U 18084L   19024.45933828 -.00000216 +00000-0 -95597-5 0  9993",
    "TLE_LINE2": "2 43682 098.8614 151.9242 0058059 003.9188 356.2475 15.02510731013057",
    "OBJECT_ID": "2018-084L",
    "OBJECT_NUMBER": "43682",
    "SEMIMAJOR_AXIS": "6937.294",
    "PERIOD": "95.840",
    "APOGEE": "599.437",
    "PERIGEE": "518.882",
    "DECAYED": "0"
  },
  {
    "COMMENT": "GENERATED VIA SPACETRACK.ORG API",
    "ORIGINATOR": "18 SPCS",
    "NORAD_CAT_ID": "43682",
    "OBJECT_NAME": "H-2A R/B",
    "OBJECT_TYPE": "ROCKET BODY",
    "CLASSIFICATION_TYPE": "U",
    "INTLDES": "18084L",
    "EPOCH": "2019-01-24 22:12:43",
    "EPOCH_MICROSECONDS": "537824",
    "MEAN_MOTION": "15.02510025",
    "ECCENTRICITY": "0.0058041",
    "INCLINATION": "98.861",
    "RA_OF_ASC_NODE": "152.456",
    "ARG_OF_PERICENTER": "2.3085",
    "MEAN_ANOMALY": "357.8361",
    "EPHEMERIS_TYPE": "0",
    "ELEMENT_SET_NO": "999",
    "REV_AT_EPOCH": "1312",
    "BSTAR": "-0.000016101",
    "MEAN_MOTION_DOT": "-0.00000306",
    "MEAN_MOTION_DDOT": "0",
    "FILE": "2399781",
    "TLE_LINE0": "0 H-2A R/B",
    "TLE_LINE1": "1 43682U 18084L   19024.92550391 -.00000306 +00000-0 -16101-4 0  9998",
    "TLE_LINE2": "2 43682 098.8610 152.4560 0058041 002.3085 357.8361 15.02510025013127",
    "OBJECT_ID": "2018-084L",
    "OBJECT_NUMBER": "43682",
    "SEMIMAJOR_AXIS": "6937.296",
    "PERIOD": "95.840",
    "APOGEE": "599.426",
    "PERIGEE": "518.897",
    "DECAYED": "0"
  },
  {
    "COMMENT": "GENERATED VIA SPACETRACK.ORG API",
    "ORIGINATOR": "18 SPCS",
    "NORAD_CAT_ID": "43682",
    "OBJECT_NAME": "H-2A R/B",
    "OBJECT_TYPE": "ROCKET BODY",
    "CLASSIFICATION_TYPE": "U",
    "INTLDES": "18084L",
    "EPOCH": "2019-01-24 23:48:37",
    "EPOCH_MICROSECONDS": "407168",
    "MEAN_MOTION": "15.02509963",
    "ECCENTRICITY": "0.0058035",
    "INCLINATION": "98.861",
    "RA_OF_ASC_NODE": "152.5321",
    "ARG_OF_PERICENTER": "2.0884",
    "MEAN_ANOMALY": "358.0567",
    "EPHEMERIS_TYPE": "0",
    "ELEMENT_SET_NO": "999",
    "REV_AT_EPOCH": "1313",
    "BSTAR": "-0.000016463",
    "MEAN_MOTION_DOT": "-0.00000311",
    "MEAN_MOTION_DDOT": "0",
    "FILE": "2399690",
    "TLE_LINE0": "0 H-2A R/B",
    "TLE_LINE1": "1 43682U 18084L   19024.99209962 -.00000311  00000-0 -16463-4 0  9997",
    "TLE_LINE2": "2 43682  98.8610 152.5321 0058035   2.0884 358.0567 15.02509963 13131",
    "OBJECT_ID": "2018-084L",
    "OBJECT_NUMBER": "43682",
    "SEMIMAJOR_AXIS": "6937.297",
    "PERIOD": "95.840",
    "APOGEE": "599.422",
    "PERIGEE": "518.901",
    "DECAYED": "0"
  },
  {
    "COMMENT": "GENERATED VIA SPACETRACK.ORG API",
    "ORIGINATOR": "18 SPCS",
    "NORAD_CAT_ID": "43682",
    "OBJECT_NAME": "H-2A R/B",
    "OBJECT_TYPE": "ROCKET BODY",
    "CLASSIFICATION_TYPE": "U",
    "INTLDES": "18084L",
    "EPOCH": "2019-01-25 10:59:54",
    "EPOCH_MICROSECONDS": "120192",
    "MEAN_MOTION": "15.02509852",
    "ECCENTRICITY": "0.0058083",
    "INCLINATION": "98.8609",
    "RA_OF_ASC_NODE": "153.0652",
    "ARG_OF_PERICENTER": "0.5493",
    "MEAN_ANOMALY": "359.5781",
    "EPHEMERIS_TYPE": "0",
    "ELEMENT_SET_NO": "999",
    "REV_AT_EPOCH": "1320",
    "BSTAR": "-0.000015356",
    "MEAN_MOTION_DOT": "-0.00000296",
    "MEAN_MOTION_DDOT": "0",
    "FILE": "2400172",
    "TLE_LINE0": "0 H-2A R/B",
    "TLE_LINE1": "1 43682U 18084L   19025.45826528 -.00000296 +00000-0 -15356-4 0  9994",
    "TLE_LINE2": "2 43682 098.8609 153.0652 0058083 000.5493 359.5781 15.02509852013203",
    "OBJECT_ID": "2018-084L",
    "OBJECT_NUMBER": "43682",
    "SEMIMAJOR_AXIS": "6937.297",
    "PERIOD": "95.840",
    "APOGEE": "599.456",
    "PERIGEE": "518.868",
    "DECAYED": "0"
  },
  {
    "COMMENT": "GENERATED VIA SPACETRACK.ORG API",
    "ORIGINATOR": "18 SPCS",
    "NORAD_CAT_ID": "43682",
    "OBJECT_NAME": "H-2A R/B",
    "OBJECT_TYPE": "ROCKET BODY",
    "CLASSIFICATION_TYPE": "U",
    "INTLDES": "18084L",
    "EPOCH": "2019-01-25 22:11:10",
    "EPOCH_MICROSECONDS": "856544",
    "MEAN_MOTION": "15.02509112",
    "ECCENTRICITY": "0.0058115",
    "INCLINATION": "98.8597",
    "RA_OF_ASC_NODE": "153.5987",
    "ARG_OF_PERICENTER": "358.8892",
    "MEAN_ANOMALY": "1.2168",
    "EPHEMERIS_TYPE": "0",
    "ELEMENT_SET_NO": "999",
    "REV_AT_EPOCH": "1327",
    "BSTAR": "-0.000018835",
    "MEAN_MOTION_DOT": "-0.00000344",
    "MEAN_MOTION_DDOT": "0",
    "FILE": "2400444",
    "TLE_LINE0": "0 H-2A R/B",
    "TLE_LINE1": "1 43682U 18084L   19025.92443121 -.00000344 +00000-0 -18835-4 0  9999",
    "TLE_LINE2": "2 43682 098.8597 153.5987 0058115 358.8892 001.2168 15.02509112013279",
    "OBJECT_ID": "2018-084L",
    "OBJECT_NUMBER": "43682",
    "SEMIMAJOR_AXIS": "6937.299",
    "PERIOD": "95.840",
    "APOGEE": "599.480",
    "PERIGEE": "518.848",
    "DECAYED": "0"
  }
]